{
  "type": "FeatureCollection",
  "features": [
    {
      "type": "Feature",
      "properties": {
        "norad_id": 65731,
        "name": "1998-067XK",
        "group": "stations",
        "lat": -30.173184919456737,
        "lon": 120.5490072166747,
        "alt_km": 376.3831092849441,
        "timestamp": "2025-12-10T14:53:35.962085+00:00",
        "meta_object_name": "1998-067XK",
        "meta_object_id": "1998-067XK",
        "meta_epoch": "2025-12-10T04:20:10.861728",
        "meta_mean_motion": 15.65053427,
        "meta_eccentricity": 0.0005212,
        "meta_inclination": 51.6282,
        "meta_ra_of_asc_node": 150.21,
        "meta_arg_of_pericenter": 229.5199,
        "meta_mean_anomaly": 130.5343,
        "meta_ephemeris_type": 0,
        "meta_classification_type": "U",
        "meta_norad_cat_id": 65731,
        "meta_element_set_no": 999,
        "meta_rev_at_epoch": 1274,
        "meta_bstar": 0.0012135732,
        "meta_mean_motion_dot": 0.00123207,
        "meta_mean_motion_ddot": 0,
        "tle_line1": "1 65731U 98067XK  25344.18068127  .00123207  00000+0  12136-2 0  9992",
        "tle_line2": "2 65731  51.6282 150.2100 0005212 229.5199 130.5343 15.65053427 12745"
      },
      "geometry": {
        "type": "Point",
        "coordinates": [
          120.5490072166747,
          -30.173184919456737
        ]
      }
    },
    {
      "type": "Feature",
      "properties": {
        "norad_id": 65732,
        "name": "RSP-03",
        "group": "stations",
        "lat": -51.58934006734109,
        "lon": 59.30960694712851,
        "alt_km": 366.3829319734814,
        "timestamp": "2025-12-10T14:53:35.962095+00:00",
        "meta_object_name": "RSP-03",
        "meta_object_id": "1998-067XL",
        "meta_epoch": "2025-12-09T20:54:46.609920",
        "meta_mean_motion": 15.6763654,
        "meta_eccentricity": 0.00060323,
        "meta_inclination": 51.6264,
        "meta_ra_of_asc_node": 151.1351,
        "meta_arg_of_pericenter": 231.1748,
        "meta_mean_anomaly": 128.871,
        "meta_ephemeris_type": 0,
        "meta_classification_type": "U",
        "meta_norad_cat_id": 65732,
        "meta_element_set_no": 999,
        "meta_rev_at_epoch": 1271,
        "meta_bstar": 0.001351733,
        "meta_mean_motion_dot": 0.00152975,
        "meta_mean_motion_ddot": 0,
        "tle_line1": "1 65732U 98067XL  25343.87137280  .00152975  00000+0  13517-2 0  9993",
        "tle_line2": "2 65732  51.6264 151.1351 0006032 231.1748 128.8710 15.67636540 12714"
      },
      "geometry": {
        "type": "Point",
        "coordinates": [
          59.30960694712851,
          -51.58934006734109
        ]
      }
    },
    {
      "type": "Feature",
      "properties": {
        "norad_id": 65733,
        "name": "GHS-01",
        "group": "stations",
        "lat": 28.233683928875788,
        "lon": -59.092657146798395,
        "alt_km": 347.54711527755353,
        "timestamp": "2025-12-10T14:53:35.962104+00:00",
        "meta_object_name": "GHS-01",
        "meta_object_id": "1998-067XM",
        "meta_epoch": "2025-12-09T18:28:18.827904",
        "meta_mean_motion": 15.73188946,
        "meta_eccentricity": 0.00069378,
        "meta_inclination": 51.6282,
        "meta_ra_of_asc_node": 150.4557,
        "meta_arg_of_pericenter": 260.0742,
        "meta_mean_anomaly": 99.9474,
        "meta_ephemeris_type": 0,
        "meta_classification_type": "U",
        "meta_norad_cat_id": 65733,
        "meta_element_set_no": 999,
        "meta_rev_at_epoch": 1271,
        "meta_bstar": 0.0015641531,
        "meta_mean_motion_dot": 0.00225395,
        "meta_mean_motion_ddot": 0,
        "tle_line1": "1 65733U 98067XM  25343.76966236  .00225395  00000+0  15642-2 0  9991",
        "tle_line2": "2 65733  51.6282 150.4557 0006937 260.0742  99.9474 15.73188946 12718"
      },
      "geometry": {
        "type": "Point",
        "coordinates": [
          -59.092657146798395,
          28.233683928875788
        ]
      }
    },
    {
      "type": "Feature",
      "properties": {
        "norad_id": 65941,
        "name": "YOTSUBA-KULOVER",
        "group": "stations",
        "lat": 37.772238891601134,
        "lon": -67.25256842947272,
        "alt_km": 385.58162303567224,
        "timestamp": "2025-12-10T14:53:35.962114+00:00",
        "meta_object_name": "YOTSUBA-KULOVER",
        "meta_object_id": "1998-067XN",
        "meta_epoch": "2025-12-10T06:39:08.151552",
        "meta_mean_motion": 15.58984772,
        "meta_eccentricity": 0.00015635,
        "meta_inclination": 51.6286,
        "meta_ra_of_asc_node": 152.3518,
        "meta_arg_of_pericenter": 229.167,
        "meta_mean_anomaly": 130.9187,
        "meta_ephemeris_type": 0,
        "meta_classification_type": "U",
        "meta_norad_cat_id": 65941,
        "meta_element_set_no": 999,
        "meta_rev_at_epoch": 947,
        "meta_bstar": 0.0011499536,
        "meta_mean_motion_dot": 0.00091734,
        "meta_mean_motion_ddot": 0,
        "tle_line1": "1 65941U 98067XN  25344.27717768  .00091734  00000+0  11500-2 0  9990",
        "tle_line2": "2 65941  51.6286 152.3518 0001563 229.1670 130.9187 15.58984772  9477"
      },
      "geometry": {
        "type": "Point",
        "coordinates": [
          -67.25256842947272,
          37.772238891601134
        ]
      }
    },
    {
      "type": "Feature",
      "properties": {
        "norad_id": 65942,
        "name": "BOTAN",
        "group": "stations",
        "lat": 48.08517318720981,
        "lon": -148.0439281555895,
        "alt_km": 376.57432049317504,
        "timestamp": "2025-12-10T14:53:35.962124+00:00",
        "meta_object_name": "BOTAN",
        "meta_object_id": "1998-067XP",
        "meta_epoch": "2025-12-09T18:37:41.598624",
        "meta_mean_motion": 15.6202186,
        "meta_eccentricity": 0.00035332,
        "meta_inclination": 51.6281,
        "meta_ra_of_asc_node": 154.2559,
        "meta_arg_of_pericenter": 214.7567,
        "meta_mean_anomaly": 145.3196,
        "meta_ephemeris_type": 0,
        "meta_classification_type": "U",
        "meta_norad_cat_id": 65942,
        "meta_element_set_no": 999,
        "meta_rev_at_epoch": 940,
        "meta_bstar": 0.0013930428,
        "meta_mean_motion_dot": 0.00125565,
        "meta_mean_motion_ddot": 0,
        "tle_line1": "1 65942U 98067XP  25343.77617591  .00125565  00000+0  13930-2 0  9997",
        "tle_line2": "2 65942  51.6281 154.2559 0003533 214.7567 145.3196 15.62021860  9401"
      },
      "geometry": {
        "type": "Point",
        "coordinates": [
          -148.0439281555895,
          48.08517318720981
        ]
      }
    },
    {
      "type": "Feature",
      "properties": {
        "norad_id": 65943,
        "name": "E-KAGAKU-1",
        "group": "stations",
        "lat": 37.78063756010195,
        "lon": -67.27015489367847,
        "alt_km": 383.7334459670319,
        "timestamp": "2025-12-10T14:53:35.962134+00:00",
        "meta_object_name": "E-KAGAKU-1",
        "meta_object_id": "1998-067XQ",
        "meta_epoch": "2025-12-10T06:39:08.237952",
        "meta_mean_motion": 15.5900432,
        "meta_eccentricity": 0.00052507,
        "meta_inclination": 51.6298,
        "meta_ra_of_asc_node": 152.3458,
        "meta_arg_of_pericenter": 191.2269,
        "meta_mean_anomaly": 168.8608,
        "meta_ephemeris_type": 0,
        "meta_classification_type": "U",
        "meta_norad_cat_id": 65943,
        "meta_element_set_no": 999,
        "meta_rev_at_epoch": 947,
        "meta_bstar": 0.0012588803,
        "meta_mean_motion_dot": 0.00100705,
        "meta_mean_motion_ddot": 0,
        "tle_line1": "1 65943U 98067XQ  25344.27717868  .00100705  00000+0  12589-2 0  9990",
        "tle_line2": "2 65943  51.6298 152.3458 0005250 191.2269 168.8608 15.59004320  9476"
      },
      "geometry": {
        "type": "Point",
        "coordinates": [
          -67.27015489367847,
          37.78063756010195
        ]
      }
    },
    {
      "type": "Feature",
      "properties": {
        "norad_id": 66052,
        "name": "HRC MONOBLOCK CAMERA",
        "group": "stations",
        "lat": 21.273487617765163,
        "lon": -45.89740907159961,
        "alt_km": 400.66270708342654,
        "timestamp": "2025-12-10T14:53:35.962143+00:00",
        "meta_object_name": "HRC MONOBLOCK CAMERA",
        "meta_object_id": "1998-067XR",
        "meta_epoch": "2025-12-10T01:53:33.064224",
        "meta_mean_motion": 15.53848796,
        "meta_eccentricity": 0.00036764,
        "meta_inclination": 51.6294,
        "meta_ra_of_asc_node": 154.7721,
        "meta_arg_of_pericenter": 173.0963,
        "meta_mean_anomaly": 187.0078,
        "meta_ephemeris_type": 0,
        "meta_classification_type": "U",
        "meta_norad_cat_id": 66052,
        "meta_element_set_no": 999,
        "meta_rev_at_epoch": 842,
        "meta_bstar": 0.00070942813,
        "meta_mean_motion_dot": 0.00046287,
        "meta_mean_motion_ddot": 0,
        "tle_line1": "1 66052U 98067XR  25344.07885491  .00046287  00000+0  70943-3 0  9991",
        "tle_line2": "2 66052  51.6294 154.7721 0003676 173.0963 187.0078 15.53848796  8427"
      },
      "geometry": {
        "type": "Point",
        "coordinates": [
          -45.89740907159961,
          21.273487617765163
        ]
      }
    }
  ]
}